[
    {
        "Altitude(m)": 624792.7856148747,
        "Argument of Periapsis(deg)": 0.0,
        "Eccentricity": 0.0,
        "Inclination(deg)": 60.0,
        "Latitude(deg)": -59.14712862899336,
        "Longitude(deg)": -15.973439282311714,
        "Mean Anomaly(deg)": -98.18180000000002,
        "RAAN(deg)": 190.0,
        "Satellite Name": "Test1 852",
        "Satellite Number": 852,
        "Semi-Major Axis(m)": 6980739.136638005,
        "Time(s)": 0
    },
    {
        "Altitude(m)": 624842.1769961339,
        "Argument of Periapsis(deg)": 0.00010418945913296404,
        "Eccentricity": 0.0,
        "Inclination(deg)": 60.0,
        "Latitude(deg)": -59.28921034368629,
        "Longitude(deg)": -14.84393299446097,
        "Mean Anomaly(deg)": -97.56169385453816,
        "RAAN(deg)": 189.99957995086027,
        "Satellite Name": "Test1 852",
        "Satellite Number": 852,
        "Semi-Major Axis(m)": 6980739.136638005,
        "Time(s)": 10
    }
]